IRIDIUM 63              
1 25286U 98021B   25363.76004948  .00000613  00000+0  20124-3 0  9991
2 25286  86.3982   0.0704 0002243  83.7240 276.4212 14.36750631451928
IRIDIUM 69              
1 25319U 98026A   25363.58632527  .00000625  00000+0  18759-3 0  9997
2 25319  86.3968  12.8145 0004598  94.9208 265.2516 14.41232913451200
IRIDIUM 71              
1 25320U 98026B   25363.78022245  .00000471  00000+0  13960-3 0  9999
2 25320  86.3971   7.4038 0003496 125.4383 234.7143 14.41329335451760
IRIDIUM 73              
1 25344U 98032C   25363.38731299  .00001043  00000+0  25315-3 0  9997
2 25344  86.4419 323.9135 0002931  79.4955 280.6580 14.52014756458889
IRIDIUM 82              
1 25467U 98051A   25363.52738895  .00063581  00000+0  11294-2 0  9994
2 25467  86.3601  12.6465 0056467 267.1156  92.3639 15.48148731453994
